[ {"name": "STARLINK-36585", "line1": "1 67540U 26014J   26187.64147904  .00017601  00000+0  54627-3 0  9995", "line2": "2 67540  97.2854  74.0911 0001660  82.7136 277.4295 15.33442287 27016"}, {"name": "STARLINK-36579", "line1": "1 67541U 26014K   26188.13089340  .00013525  00000+0  42056-3 0  9994", "line2": "2 67541  97.2860  74.6508 0001589 112.9644 247.1766 15.33442008 27098"}, {"name": "STARLINK-35934", "line1": "1 67542U 26014L   26187.67954361  .00020004  00000+0  62085-3 0  9991", "line2": "2 67542  97.2846  74.1950 0001957  87.8146 272.3320 15.33416185 27010"}, {"name": "STARLINK-36581", "line1": "1 67543U 26014M   26187.64419806  .00017605  00000+0  54647-3 0  9997", "line2": "2 67543  97.2855  74.0897 0001578  81.2864 278.8557 15.33438756 27015"}, {"name": "STARLINK-36565", "line1": "1 67544U 26014N   26187.65235448  .00018407  00000+0  57111-3 0  9997", "line2": "2 67544  97.2853  74.0789 0001652  83.8231 276.3200 15.33442858 27019"}, {"name": "STARLINK-36583", "line1": "1 67545U 26014P   26188.14720789  .00012482  00000+0  38839-3 0  9993", "line2": "2 67545  97.2856  74.6289 0001410  74.7957 285.3442 15.33438581 27094"}, {"name": "STARLINK-36580", "line1": "1 67546U 26014Q   26188.11729740  .00014692  00000+0  45655-3 0  9996", "line2": "2 67546  97.2858  74.5182 0001653 120.7866 239.3539 15.33443234 27084"}, {"name": "STARLINK-36584", "line1": "1 67547U 26014R   26188.14179251  .00011948  00000+0  37195-3 0  9997", "line2": "2 67547  97.2858  74.6375 0001630  98.1346 262.0081 15.33435021 27097"}, {"name": "STARLINK-36586", "line1": "1 67548U 26014S   26188.13907119  .00015436  00000+0  47954-3 0  9999", "line2": "2 67548  97.2847  74.6426 0001906  86.5487 273.5973 15.33439962 27091"}, {"name": "STARLINK-36564", "line1": "1 67549U 26014T   26187.66323492  .00019822  00000+0  61480-3 0  9996", "line2": "2 67549  97.2852  74.0642 0001744  83.3917 276.7524 15.33439417 26951"}, {"name": "STARLINK-36563", "line1": "1 67550U 26014U   26187.67684273  .00032335  00000+0  99956-3 0  9999", "line2": "2 67550  97.2852  74.1982 0001689  96.8581 263.2854 15.33446719 27024"}, {"name": "STARLINK-36566", "line1": "1 67551U 26014V   26187.66868873  .00023827  00000+0  73842-3 0  9991", "line2": "2 67551  97.2854  74.0569 0001713  96.9085 263.2353 15.33428194 27004"}, {"name": "STARLINK-36567", "line1": "1 67552U 26014W   26188.14450935  .00017878  00000+0  55476-3 0  9994", "line2": "2 67552  97.2853  74.6314 0001390  88.3312 271.8090 15.33446276 27089"}, {"name": "STARLINK-36569", "line1": "1 67553U 26014X   26187.63060007  .00016285  00000+0  50570-3 0  9996", "line2": "2 67553  97.2846  74.1091 0002231  97.5111 262.6385 15.33441455 27004"}, {"name": "STARLINK-36395", "line1": "1 67554U 26014Y   26187.64378102  .00012364  00000+0  38495-3 0  9992", "line2": "2 67554  97.2847  76.9890 0001914  92.0136 268.1326 15.33420342 27195"}, {"name": "STARLINK-36559", "line1": "1 67555U 26014Z   26187.63876044  .00014637  00000+0  45489-3 0  9996", "line2": "2 67555  97.2847  74.0968 0001981  81.6211 278.5257 15.33439849 27003"}, {"name": "STARLINK-36426", "line1": "1 67560U 26014AA  26188.12819436  .00018603  00000+0  57714-3 0  9990", "line2": "2 67560  97.2858  74.6564 0001612  86.0441 274.0986 15.33445318 27080"}, {"name": "STARLINK-36621", "line1": "1 67561U 26016A   26187.72816551  .00026877  00000+0  83183-3 0  9994", "line2": "2 67561  97.2849 247.4002 0001107 104.3793 255.7573 15.33447540 25109"}, {"name": "STARLINK-36398", "line1": "1 67562U 26016B   26188.12782862  .00017269  00000+0  53574-3 0  9993", "line2": "2 67562  97.2846 247.9266 0000550 253.0489 107.0693 15.33462017 25174"}, {"name": "STARLINK-36403", "line1": "1 67563U 26016C   26187.69009914  .00045287  00000+0  13962-2 0  9992", "line2": "2 67563  97.2844 247.4491 0000918  72.4860 287.6483 15.33456406 25102"}, {"name": "STARLINK-36593", "line1": "1 67564U 26016D   26187.69554049  .00028627  00000+0  88509-3 0  9996", "line2": "2 67564  97.2838 247.4428 0001890  65.7702 294.3738 15.33466373 25108"}, {"name": "STARLINK-35725", "line1": "1 67565U 26016E   26188.10607941  .00018104  00000+0  56145-3 0  9994", "line2": "2 67565  97.2828 247.8045 0001282 110.4816 249.6565 15.33461411 25161"}, {"name": "STARLINK-36394", "line1": "1 67566U 26016F   26188.10880715  .00016947  00000+0  52603-3 0  9995", "line2": "2 67566  97.2842 247.8015 0000399 223.0423 137.0789 15.33449062 25164"}, {"name": "STARLINK-36352", "line1": "1 67567U 26016G   26187.68465738  .00022902  00000+0  70927-3 0  9999", "line2": "2 67567  97.2847 247.4605 0000811  86.7380 273.3956 15.33458885 25103"}, {"name": "STARLINK-36435", "line1": "1 67568U 26016H   26187.67378829  .00027235  00000+0  84287-3 0  9991", "line2": "2 67568  97.2848 247.4743 0001534  89.7316 270.4103 15.33445912 25102"}, {"name": "STARLINK-36575", "line1": "1 67569U 26016J   26187.72964134  .00033317  00000+0  10292-2 0  9990", "line2": "2 67569  97.2839 248.4622 0000738  83.1358 276.9969 15.33462741 25176"}, {"name": "STARLINK-36562", "line1": "1 67570U 26016K   26187.68193197  .00062084  00000+0  19064-2 0  9999", "line2": "2 67570  97.2831 247.4636 0000626  98.8393 261.2921 15.33498494 25104"}, {"name": "STARLINK-36578", "line1": "1 67571U 26016L   26188.11152889  .00028105  00000+0  86881-3 0  9990", "line2": "2 67571  97.2845 247.7956 0000824 175.7383 184.3867 15.33475282 25162"}, {"name": "STARLINK-36350", "line1": "1 67572U 26016M   26188.10065480  .00031384  00000+0  96947-3 0  9997", "line2": "2 67572  97.2851 247.8128 0000838 108.2737 251.8597 15.33475987 25163"}, {"name": "STARLINK-36588", "line1": "1 67573U 26016N   26188.10337595  .00029084  00000+0  89874-3 0  9992", "line2": "2 67573  97.2845 247.8095 0001352 100.9790 259.1605 15.33479702 25160"}, {"name": "STARLINK-36594", "line1": "1 67574U 26016P   26188.13599720  .00022684  00000+0  70211-3 0  9990", "line2": "2 67574  97.2846 247.9189 0000884  88.0215 272.1129 15.33478288 25179"}, {"name": "STARLINK-36400", "line1": "1 67575U 26016Q   26187.69823976  .00012778  00000+0  39756-3 0  9996", "line2": "2 67575  97.2849 247.4422 0001791  68.5887 291.5546 15.33435103 25104"}, {"name": "STARLINK-36591", "line1": "1 67576U 26016R   26188.14416068  .00020124  00000+0  62361-3 0  9990", "line2": "2 67576  97.2846 247.9075 0001078 118.7923 241.3428 15.33466235 25177"}, {"name": "STARLINK-36590", "line1": "1 67577U 26016S   26188.15776203  .00029905  00000+0  92472-3 0  9994", "line2": "2 67577  97.2841 247.8894 0001334  87.0492 273.0903 15.33453469 25170"}, {"name": "STARLINK-36613", "line1": "1 67578U 26016T   26187.72543661  .00031173  00000+0  96271-3 0  9998", "line2": "2 67578  97.2844 247.4049 0000568 323.4919  36.6285 15.33485359 25103"}, {"name": "STARLINK-36571", "line1": "1 67579U 26016U   26188.09522194  .00016997  00000+0  52753-3 0  9992", "line2": "2 67579  97.2844 247.8212 0001267  96.6067 263.5320 15.33449765 25168"}, {"name": "STARLINK-36612", "line1": "1 67580U 26016V   26187.73360250  .00029183  00000+0  90245-3 0  9996", "line2": "2 67580  97.2843 247.5464 0000756  95.3329 264.8000 15.33457078 25114"}, {"name": "STARLINK-36632", "line1": "1 67581U 26016W   26188.14959701  .00028007  00000+0  86569-3 0  9996", "line2": "2 67581  97.2855 247.9010 0001751 100.2778 259.8662 15.33479008 25170"}, {"name": "STARLINK-36609", "line1": "1 67582U 26016X   26188.16319326  .00015891  00000+0  49318-3 0  9990", "line2": "2 67582  97.2844 247.8814 0001562  90.3193 269.8229 15.33465332 25175"}, {"name": "STARLINK-36577", "line1": "1 67583U 26016Y   26187.73088185  .00033074  00000+0  10218-2 0  9998", "line2": "2 67583  97.2837 247.5498 0000286 137.4558 222.6707 15.33460823 25115"}, {"name": "STARLINK-36419", "line1": "1 67584U 26016Z   26188.13328301  .00028288  00000+0  87452-3 0  9997", "line2": "2 67584  97.2837 247.9201 0000628 309.6192  50.4995 15.33472903 25173"}, {"name": "STARLINK-36560", "line1": "1 67585U 26016AA  26187.72272425  .00032716  00000+0  10109-2 0  9992", "line2": "2 67585  97.2836 247.4100 0000240 267.0755  93.0460 15.33460340 25103"}, {"name": "STARLINK-36641", "line1": "1 67589U 26018A   26187.71982035  .00034829  00000+0  10757-2 0  9998", "line2": "2 67589  97.2839 252.2069 0001229  93.3508 266.7875 15.33459591 25578"}, {"name": "STARLINK-36376", "line1": "1 67590U 26018B   26187.70075906 -.00011277  00000+0 -34734-3 0  9995", "line2": "2 67590  97.2844 252.2346 0000878 177.1994 182.9254 15.33461019 25571"}, {"name": "STARLINK-36391", "line1": "1 67591U 26018C   26187.73341436  .00030253  00000+0  93542-3 0  9998", "line2": "2 67591  97.2844 252.1918 0001063  78.7413 281.3949 15.33453817 25577"}, {"name": "STARLINK-36603", "line1": "1 67592U 26018D   26187.69534536  .00036907  00000+0  11391-2 0  9992", "line2": "2 67592  97.2853 252.2434 0001268 119.9439 240.1929 15.33467751 25578"}, {"name": "STARLINK-36634", "line1": "1 67593U 26018E   26188.14669152  .00033430  00000+0  10323-2 0  9999", "line2": "2 67593  97.2851 252.7000 0000949 106.9848 253.1499 15.33473175 25647"}, {"name": "STARLINK-36638", "line1": "1 67594U 26018F   26187.72797428  .00030650  00000+0  94741-3 0  9999", "line2": "2 67594  97.2836 252.1975 0000652 123.7038 236.4267 15.33461180 25577"}, {"name": "STARLINK-36628", "line1": "1 67595U 26018G   26187.70622603  .00039747  00000+0  12267-2 0  9998", "line2": "2 67595  97.2843 252.2258 0000648 108.5771 251.5542 15.33455312 25575"}, {"name": "STARLINK-36629", "line1": "1 67596U 26018H   26187.71438144  .00028674  00000+0  88686-3 0  9991", "line2": "2 67596  97.2846 252.2163 0000858  80.3118 279.8222 15.33455936 25579"}, {"name": "STARLINK-36384", "line1": "1 67597U 26018J   26187.67359549  .00047863  00000+0  14739-2 0  9996", "line2": "2 67597  97.2834 252.2733 0001124 341.8236  18.2967 15.33480534 25576"}, {"name": "STARLINK-36358", "line1": "1 67598U 26018K   26187.70894414  .00037220  00000+0  11492-2 0  9995", "line2": "2 67598  97.2837 252.2226 0000782 104.0157 256.1173 15.33454820 25578"}]